STARLINK-31820          
1 59725U 24088T   26068.45865526  .00000496  00000+0  28884-4 0  9995
2 59725  53.1609 141.2066 0001205  67.9600 292.1529 15.30186376103644
TANSTAAFL-2             
1 62378U 24247B   26067.20753490  .00013897  00000+0  50872-3 0  9998
2 62378  44.9880 125.0934 0003072 298.8909  61.1666 15.28016845 67506
